{
  "norad_id": 50202,
  "name": "STARLINK-3256",
  "history": [
    {
      "epoch": "2026-03-28T14:24:40.341024Z",
      "apogee_km": 540.6726494153299,
      "perigee_km": 538.8338741837424,
      "latitude_deg": -2.061610725641093e-05,
      "longitude_deg": 112.04051406804128,
      "height_km": 540.6088998350494,
      "semi_major_axis_km": 6917.890261799535,
      "eccentricity": 0.0001329,
      "inclination_deg": 53.2165,
      "raan_deg": 154.2272,
      "arg_perigee_deg": 87.5052,
      "mean_anomaly_deg": 272.6092,
      "mean_motion_rev_day": 15.0883677
    }
  ]
}